[
    {
        "Altitude(m)": 624790.8354668211,
        "Argument of Periapsis(deg)": 0.0,
        "Eccentricity": 0.0,
        "Inclination(deg)": 60.0,
        "Latitude(deg)": -59.14723808495783,
        "Longitude(deg)": -58.965308118412004,
        "Mean Anomaly(deg)": -81.81820000000003,
        "RAAN(deg)": 114.99999999999999,
        "Satellite Name": "Test1 523",
        "Satellite Number": 523,
        "Semi-Major Axis(m)": 6980739.136638005,
        "Time(s)": 0
    },
    {
        "Altitude(m)": 624737.4903106558,
        "Argument of Periapsis(deg)": 0.00010418945913296404,
        "Eccentricity": 0.0,
        "Inclination(deg)": 60.0,
        "Latitude(deg)": -58.99469220296875,
        "Longitude(deg)": -57.84580264716174,
        "Mean Anomaly(deg)": -81.19809385453819,
        "RAAN(deg)": 114.99957995086024,
        "Satellite Name": "Test1 523",
        "Satellite Number": 523,
        "Semi-Major Axis(m)": 6980739.136638005,
        "Time(s)": 10
    },
    {
        "Altitude(m)": 624680.3615551649,
        "Argument of Periapsis(deg)": 0.0002083789182659281,
        "Eccentricity": 0.0,
        "Inclination(deg)": 60.0,
        "Latitude(deg)": -58.83183468929752,
        "Longitude(deg)": -56.736849705464294,
        "Mean Anomaly(deg)": -80.57798770907635,
        "RAAN(deg)": 114.9991599017205,
        "Satellite Name": "Test1 523",
        "Satellite Number": 523,
        "Semi-Major Axis(m)": 6980739.136638005,
        "Time(s)": 20
    },
    {
        "Altitude(m)": 624619.4716658364,
        "Argument of Periapsis(deg)": 0.00031256837739889213,
        "Eccentricity": 0.0,
        "Inclination(deg)": 60.0,
        "Latitude(deg)": -58.658826182756584,
        "Longitude(deg)": -55.63895737162997,
        "Mean Anomaly(deg)": -79.9578815636145,
        "RAAN(deg)": 114.99873985258075,
        "Satellite Name": "Test1 523",
        "Satellite Number": 523,
        "Semi-Major Axis(m)": 6980739.136638005,
        "Time(s)": 30
    },
    {
        "Altitude(m)": 624554.8445852376,
        "Argument of Periapsis(deg)": 0.0004167578365318562,
        "Eccentricity": 0.0,
        "Inclination(deg)": 60.0,
        "Latitude(deg)": -58.47583370667476,
        "Longitude(deg)": -54.552593620078305,
        "Mean Anomaly(deg)": -79.33777541815267,
        "RAAN(deg)": 114.99831980344102,
        "Satellite Name": "Test1 523",
        "Satellite Number": 523,
        "Semi-Major Axis(m)": 6980739.136638005,
        "Time(s)": 40
    },
    {
        "Altitude(m)": 624486.5057229165,
        "Argument of Periapsis(deg)": 0.0005209472956648203,
        "Eccentricity": 0.0,
        "Inclination(deg)": 60.0,
        "Latitude(deg)": -58.283029966304724,
        "Longitude(deg)": -53.478187084086045,
        "Mean Anomaly(deg)": -78.71766927269083,
        "RAAN(deg)": 114.99789975430127,
        "Satellite Name": "Test1 523",
        "Satellite Number": 523,
        "Semi-Major Axis(m)": 6980739.136638005,
        "Time(s)": 50
    },
    {
        "Altitude(m)": 624414.4819446809,
        "Argument of Periapsis(deg)": 0.0006251367547977843,
        "Eccentricity": 0.0,
        "Inclination(deg)": 60.0,
        "Latitude(deg)": -58.08059265219124,
        "Longitude(deg)": -52.41612659012872,
        "Mean Anomaly(deg)": -78.09756312722905,
        "RAAN(deg)": 114.99747970516154,
        "Satellite Name": "Test1 523",
        "Satellite Number": 523,
        "Semi-Major Axis(m)": 6980739.136638005,
        "Time(s)": 60
    },
    {
        "Altitude(m)": 624338.801561266,
        "Argument of Periapsis(deg)": 0.0007293262139307483,
        "Eccentricity": 0.0,
        "Inclination(deg)": 60.0,
        "Latitude(deg)": -57.86870375477072,
        "Longitude(deg)": -51.366760957162285,
        "Mean Anomaly(deg)": -77.47745698176719,
        "RAAN(deg)": 114.99705965602179,
        "Satellite Name": "Test1 523",
        "Satellite Number": 523,
        "Semi-Major Axis(m)": 6980739.136638005,
        "Time(s)": 70
    },
    {
        "Altitude(m)": 624259.4943163807,
        "Argument of Periapsis(deg)": 0.0008335156730637124,
        "Eccentricity": 0.0,
        "Inclination(deg)": 60.0,
        "Latitude(deg)": -57.647548894951065,
        "Longitude(deg)": -50.33040055206415,
        "Mean Anomaly(deg)": -76.85735083630541,
        "RAAN(deg)": 114.99663960688207,
        "Satellite Name": "Test1 523",
        "Satellite Number": 523,
        "Semi-Major Axis(m)": 6980739.136638005,
        "Time(s)": 80
    },
    {
        "Altitude(m)": 624176.5913741473,
        "Argument of Periapsis(deg)": 0.0009377051321966765,
        "Eccentricity": 0.0,
        "Inclination(deg)": 60.0,
        "Latitude(deg)": -57.4173166748643,
        "Longitude(deg)": -49.307317552280644,
        "Mean Anomaly(deg)": -76.23724469084357,
        "RAAN(deg)": 114.99621955774231,
        "Satellite Name": "Test1 523",
        "Satellite Number": 523,
        "Semi-Major Axis(m)": 6980739.136638005,
        "Time(s)": 90
    },
    {
        "Altitude(m)": 624090.1253059346,
        "Argument of Periapsis(deg)": 0.0010418945913296407,
        "Eccentricity": 0.0,
        "Inclination(deg)": 60.0,
        "Latitude(deg)": -57.17819805242396,
        "Longitude(deg)": -48.297746404393585,
        "Mean Anomaly(deg)": -75.61713854538168,
        "RAAN(deg)": 114.99579950860259,
        "Satellite Name": "Test1 523",
        "Satellite Number": 523,
        "Semi-Major Axis(m)": 6980739.136638005,
        "Time(s)": 100
    },
    {
        "Altitude(m)": 624000.1300765895,
        "Argument of Periapsis(deg)": 0.0011460840504626045,
        "Eccentricity": 0.0,
        "Inclination(deg)": 60.0,
        "Latitude(deg)": -56.9303857427493,
        "Longitude(deg)": -47.30188596687199,
        "Mean Anomaly(deg)": -74.99703239991987,
        "RAAN(deg)": 114.99537945946282,
        "Satellite Name": "Test1 523",
        "Satellite Number": 523,
        "Semi-Major Axis(m)": 6980739.136638005,
        "Time(s)": 110
    },
    {
        "Altitude(m)": 623906.641030065,
        "Argument of Periapsis(deg)": 0.0012502735095955685,
        "Eccentricity": 0.0,
        "Inclination(deg)": 60.0,
        "Latitude(deg)": -56.67407364895548,
        "Longitude(deg)": -46.319900286676116,
        "Mean Anomaly(deg)": -74.37692625445806,
        "RAAN(deg)": 114.9949594103231,
        "Satellite Name": "Test1 523",
        "Satellite Number": 523,
        "Semi-Major Axis(m)": 6980739.136638005,
        "Time(s)": 120
    },
    {
        "Altitude(m)": 623809.6948744853,
        "Argument of Periapsis(deg)": 0.0013544629687285324,
        "Eccentricity": 0.0,
        "Inclination(deg)": 60.0,
        "Latitude(deg)": -56.40945632427291,
        "Longitude(deg)": -45.3519194984677,
        "Mean Anomaly(deg)": -73.7568201089962,
        "RAAN(deg)": 114.99453936118334,
        "Satellite Name": "Test1 523",
        "Satellite Number": 523,
        "Semi-Major Axis(m)": 6980739.136638005,
        "Time(s)": 130
    },
    {
        "Altitude(m)": 623709.3296665844,
        "Argument of Periapsis(deg)": 0.0014586524278614966,
        "Eccentricity": 0.0,
        "Inclination(deg)": 60.0,
        "Latitude(deg)": -56.136728466945826,
        "Longitude(deg)": -44.398042335988464,
        "Mean Anomaly(deg)": -73.13671396353436,
        "RAAN(deg)": 114.99411931204362,
        "Satellite Name": "Test1 523",
        "Satellite Number": 523,
        "Semi-Major Axis(m)": 6980739.136638005,
        "Time(s)": 140
    },
    {
        "Altitude(m)": 623605.584795591,
        "Argument of Periapsis(deg)": 0.0015628418869944607,
        "Eccentricity": 0.0,
        "Inclination(deg)": 60.0,
        "Latitude(deg)": -55.85608444887621,
        "Longitude(deg)": -43.45833720764895,
        "Mean Anomaly(deg)": -72.51660781807257,
        "RAAN(deg)": 114.99369926290385,
        "Satellite Name": "Test1 523",
        "Satellite Number": 523,
        "Semi-Major Axis(m)": 6980739.136638005,
        "Time(s)": 150
    },
    {
        "Altitude(m)": 623498.5009665485,
        "Argument of Periapsis(deg)": 0.0016670313461274247,
        "Eccentricity": 0.0,
        "Inclination(deg)": 60.0,
        "Latitude(deg)": -55.56771787854329,
        "Longitude(deg)": -42.5328433283466,
        "Mean Anomaly(deg)": -71.89650167261068,
        "RAAN(deg)": 114.99327921376414,
        "Satellite Name": "Test1 523",
        "Satellite Number": 523,
        "Semi-Major Axis(m)": 6980739.136638005,
        "Time(s)": 160
    },
    {
        "Altitude(m)": 623388.1201830406,
        "Argument of Periapsis(deg)": 0.0017712208052603888,
        "Eccentricity": 0.0,
        "Inclination(deg)": 60.0,
        "Latitude(deg)": -55.271821198329796,
        "Longitude(deg)": -41.62157340105291,
        "Mean Anomaly(deg)": -71.27639552714894,
        "RAAN(deg)": 114.99285916462436,
        "Satellite Name": "Test1 523",
        "Satellite Number": 523,
        "Semi-Major Axis(m)": 6980739.136638005,
        "Time(s)": 170
    },
    {
        "Altitude(m)": 623274.4857293696,
        "Argument of Periapsis(deg)": 0.001875410264393353,
        "Eccentricity": 0.0,
        "Inclination(deg)": 60.0,
        "Latitude(deg)": -54.968585316025454,
        "Longitude(deg)": -40.724514804721814,
        "Mean Anomaly(deg)": -70.65628938168706,
        "RAAN(deg)": 114.99243911548463,
        "Satellite Name": "Test1 523",
        "Satellite Number": 523,
        "Semi-Major Axis(m)": 6980739.136638005,
        "Time(s)": 180
    },
    {
        "Altitude(m)": 623157.6421521867,
        "Argument of Periapsis(deg)": 0.0019795997235263173,
        "Eccentricity": 0.0,
        "Inclination(deg)": 60.0,
        "Latitude(deg)": -54.65819926997285,
        "Longitude(deg)": -39.84163078542658,
        "Mean Anomaly(deg)": -70.03618323622526,
        "RAAN(deg)": 114.99201906634488,
        "Satellite Name": "Test1 523",
        "Satellite Number": 523,
        "Semi-Major Axis(m)": 6980739.136638005,
        "Time(s)": 190
    }
]